AGILE                   
1 31135U 07013A   17345.26538744  .00002391  00000-0  41726-4 0  9992
2 31135   2.4664 169.6050 0012916 236.7234 123.1582 15.30349056590888
